      2.10          N: GNSS NAV DATA                        RINEX VERSION / TYPE
fic2rin                                 05/03/2018 00:07:13 PGM / RUN BY / DATE
                                                            END OF HEADER
12 18  5  2  9 59 44.0 3.361846320331e-04-2.273736754432e-12 0.000000000000e+00
    1.600000000000e+01-1.153125000000e+01 4.263391873099e-09-3.935426514654e-01
   -5.476176738739e-07 7.209094706923e-03 1.650303602219e-06 5.153596849442e+03
    2.951840000000e+05 4.470348358154e-08 1.999008378311e+00 9.126961231232e-08
    9.865452826452e-01 3.602187500000e+02 9.687894450776e-01-8.301060058185e-09
   -1.078616357272e-10 1.000000000000e+00 1.999000000000e+03 0.000000000000e+00
    2.400000000000e+00 0.000000000000e+00-1.257285475731e-08 1.600000000000e+01
    2.880060000000e+05 4.000000000000e+00
27 18  5  2  9 59 44.0 3.697643987834e-04-4.547473508865e-13 0.000000000000e+00
    4.800000000000e+01-1.222812500000e+02 3.829802383785e-09 3.088823207439e+00
   -6.277114152908e-06 5.896189017221e-03 8.264556527138e-06 5.153688308716e+03
    2.951840000000e+05 2.235174179077e-08 2.979277913558e+00-3.166496753693e-08
    9.776012545934e-01 2.304375000000e+02 4.051176952581e-01-7.770680822904e-09
   -1.553636143753e-10 1.000000000000e+00 1.999000000000e+03 0.000000000000e+00
    2.400000000000e+00 0.000000000000e+00 1.396983861923e-09 4.800000000000e+01
    2.880060000000e+05 4.000000000000e+00
 2 18  5  2 10  0  0.0 1.274999231100e-04-1.125499693444e-11 0.000000000000e+00
    1.200000000000e+01-8.875000000000e+00 4.640550440410e-09 1.240071060200e+00
   -4.954636096954e-07 1.788236538414e-02 1.035444438457e-05 5.153730487823e+03
    2.952000000000e+05-3.911554813385e-07-2.308612209228e+00-1.620501279831e-07
    9.500295995176e-01 1.751875000000e+02-1.862523235877e+00-8.224985460802e-09
    4.964492505326e-10 1.000000000000e+00 1.999000000000e+03 0.000000000000e+00
    2.400000000000e+00 0.000000000000e+00-2.048909664154e-08 1.200000000000e+01
    2.880060000000e+05 4.000000000000e+00
 1 18  5  2 10  0  0.0-4.478264600039e-05-2.728484105319e-12 0.000000000000e+00
    5.100000000000e+01-1.812500000000e+00 4.200174954146e-09 9.002603540402e-01
   -1.583248376846e-07 7.669096696191e-03 9.965151548386e-06 5.153671457291e+03
    2.952000000000e+05-7.450580596924e-09-2.248014767433e+00 8.754432201385e-08
    9.709311161839e-01 1.939062500000e+02 6.168931952320e-01-7.850326997630e-09
    4.907347267854e-10 1.000000000000e+00 1.999000000000e+03 0.000000000000e+00
    2.400000000000e+00 0.000000000000e+00 5.587935447693e-09 5.100000000000e+01
    2.880060000000e+05 4.000000000000e+00
 5 18  5  2 10  0  0.0-8.719041943550e-06 7.958078640513e-13 0.000000000000e+00
    2.600000000000e+01 3.781250000000e+00 5.357723170675e-09-2.390002990749e+00
   -7.450580596924e-08 5.322602228262e-03 4.803761839867e-06 5.153684234619e+03
    2.952000000000e+05 8.381903171539e-08-1.226356410941e+00-1.098960638046e-07
    9.474093347616e-01 2.803750000000e+02 6.100592143864e-01-8.377491813303e-09
    1.439345668810e-10 1.000000000000e+00 1.999000000000e+03 0.000000000000e+00
    2.400000000000e+00 0.000000000000e+00-1.117587089539e-08 2.600000000000e+01
    2.880060000000e+05 4.000000000000e+00
 6 18  5  2 10  0  0.0 4.058480262756e-04-2.160049916711e-12 0.000000000000e+00
    5.100000000000e+01-2.812500000000e+00 4.084455848266e-09 1.074085904058e+00
    7.450580596924e-09 1.212010043673e-03 9.782612323761e-06 5.153618871689e+03
    2.952000000000e+05 0.000000000000e+00-2.256345175959e+00-8.009374141693e-08
    9.706587296151e-01 1.938750000000e+02-1.111046937485e+00-7.758537459942e-09
    5.828814222080e-10 1.000000000000e+00 1.999000000000e+03 0.000000000000e+00
    2.400000000000e+00 0.000000000000e+00 4.656612873077e-09 5.100000000000e+01
    2.880060000000e+05 4.000000000000e+00
 4 18  5  2 10  0  0.0 5.753757432103e-05 3.183231456205e-12 0.000000000000e+00
    5.100000000000e+01-3.437500000000e+00 5.517729835595e-09-1.998678999380e+00
   -9.872019290924e-08 9.856521501206e-03 1.093372702599e-06 5.153693527222e+03
    2.952000000000e+05 7.636845111847e-08 1.964358192226e+00-1.285225152969e-07
    9.790138892524e-01 3.686875000000e+02 9.196607529104e-01-8.144624970607e-09
   -3.107272287506e-11 1.000000000000e+00 1.999000000000e+03 0.000000000000e+00
    2.400000000000e+00 6.300000000000e+01-1.955777406693e-08 5.100000000000e+01
    2.880060000000e+05 4.000000000000e+00
22 18  5  2 10  0  0.0-3.777001984417e-04-1.296029950026e-11 0.000000000000e+00
    2.500000000000e+01 4.062500000000e+00 5.863458522297e-09 2.424765875654e+00
    8.381903171539e-08 7.383857504465e-03 4.703179001808e-06 5.153815147400e+03
    2.952000000000e+05 9.499490261078e-08-1.263523281331e+00-7.636845111847e-08
    9.245638120910e-01 2.716875000000e+02-1.553486432008e+00-8.538927109160e-09
    1.171477368163e-10 1.000000000000e+00 1.999000000000e+03 0.000000000000e+00
    2.400000000000e+00 0.000000000000e+00-1.769512891769e-08 2.500000000000e+01
    2.880060000000e+05 4.000000000000e+00
14 18  5  2 10  0  0.0-9.660888463259e-05-2.273736754432e-13 0.000000000000e+00
    2.200000000000e+01 3.312500000000e+00 4.409112228651e-09 2.704260090510e+00
    1.173466444016e-07 9.703252464533e-03 1.066178083420e-05 5.153761394501e+03
    2.952000000000e+05 6.146728992462e-08-8.132851241327e-02-1.732259988785e-07
    9.615147148102e-01 1.710312500000e+02-1.956306699272e+00-7.673891076937e-09
   -5.832385799422e-10 1.000000000000e+00 1.999000000000e+03 0.000000000000e+00
    2.400000000000e+00 0.000000000000e+00-9.778887033463e-09 2.200000000000e+01
    2.880060000000e+05 4.000000000000e+00
15 18  5  2 10  0  0.0-3.547677770257e-04 4.547473508865e-13 0.000000000000e+00
    1.600000000000e+01-1.818750000000e+01 5.355580224270e-09 2.202539525915e+00
   -1.011416316032e-06 1.023370248731e-02 9.492039680481e-06 5.153731878281e+03
    2.952000000000e+05-2.235174179077e-07-2.409435424600e-01-1.192092895508e-07
    9.286554271861e-01 1.815312500000e+02 6.752757702778e-01-8.206413258623e-09
   -4.853773607725e-10 1.000000000000e+00 1.999000000000e+03 0.000000000000e+00
    2.400000000000e+00 0.000000000000e+00-1.117587089539e-08 1.600000000000e+01
    2.880060000000e+05 4.000000000000e+00
13 18  5  2 10  0  0.0-9.476952254772e-05 2.273736754432e-13 0.000000000000e+00
    1.800000000000e+01 1.021875000000e+01 4.303393539329e-09 1.672936861861e+00
    4.731118679047e-07 3.449021140113e-03 1.038797199726e-05 5.153662748337e+03
    2.952000000000e+05-9.313225746155e-09-3.963108713671e-02-5.401670932770e-08
    9.689872286761e-01 1.833750000000e+02 1.591851635650e+00-7.734607891750e-09
   -4.400183285296e-10 1.000000000000e+00 1.999000000000e+03 0.000000000000e+00
    2.400000000000e+00 0.000000000000e+00-1.117587089539e-08 1.800000000000e+01
    2.880060000000e+05 4.000000000000e+00
10 18  5  2 10  0  0.0 1.826332882047e-04 2.160049916711e-12 0.000000000000e+00
    1.100000000000e+01-8.750000000000e-01 5.020209111860e-09-1.216781654537e+00
   -5.587935447693e-08 3.491396550089e-03 4.850327968597e-06 5.153655485153e+03
    2.952000000000e+05 4.656612873077e-08-1.208342476589e+00-1.862645149231e-09
    9.606155848778e-01 2.832187500000e+02-2.750882989798e+00-8.228557038144e-09
    1.489347751598e-10 1.000000000000e+00 1.999000000000e+03 0.000000000000e+00
    2.400000000000e+00 0.000000000000e+00 1.862645149231e-09 1.100000000000e+01
    2.880060000000e+05 4.000000000000e+00
 9 18  5  2 10  0  0.0 5.128611810505e-04 9.094947017729e-13 0.000000000000e+00
    1.900000000000e+01-1.028125000000e+01 4.815200572432e-09-3.042173045210e+00
   -4.023313522339e-07 9.900458389893e-04 9.829178452492e-06 5.153635065079e+03
    2.952000000000e+05 2.793967723846e-08-1.708766597330e-01 1.117587089539e-08
    9.531580074055e-01 1.880937500000e+02 1.840806382300e+00-8.040692069956e-09
   -4.896632535828e-10 1.000000000000e+00 1.999000000000e+03 0.000000000000e+00
    2.400000000000e+00 0.000000000000e+00 9.313225746155e-10 1.900000000000e+01
    2.880060000000e+05 4.000000000000e+00
 8 18  5  2 10  0  0.0-9.984243661165e-05-1.364242052659e-12 0.000000000000e+00
    6.500000000000e+01-1.187812500000e+02 4.071955327570e-09-2.918001266694e+00
   -6.083399057388e-06 3.481291118078e-03 7.711350917816e-06 5.153564861298e+03
    2.952000000000e+05 4.656612873077e-08 2.971025617542e+00 5.587935447693e-08
    9.694073626563e-01 2.358125000000e+02-4.573014577670e-01-7.922472859938e-09
   -1.982225424788e-10 1.000000000000e+00 1.999000000000e+03 0.000000000000e+00
    2.400000000000e+00 0.000000000000e+00 5.122274160385e-09 6.500000000000e+01
    2.880060000000e+05 4.000000000000e+00
26 18  5  2 10  0  0.0-1.630270853639e-04 1.284661266254e-11 0.000000000000e+00
    2.100000000000e+01 9.218750000000e+00 4.827343935394e-09-1.393141514096e+00
    5.085021257401e-07 2.800012007356e-03 9.406358003616e-07 5.153648025513e+03
    2.952000000000e+05-6.519258022308e-08 1.918007995497e+00-9.313225746155e-08
    9.557380419143e-01 3.605625000000e+02 1.184236018012e-01-8.523569326590e-09
   -4.428755904031e-11 1.000000000000e+00 1.999000000000e+03 0.000000000000e+00
    2.400000000000e+00 0.000000000000e+00 7.450580596924e-09 2.100000000000e+01
    2.880060000000e+05 4.000000000000e+00
31 18  5  2 10  0  0.0 1.244898885489e-04-2.614797267597e-12 0.000000000000e+00
    2.000000000000e+01 1.190625000000e+02 4.374825086168e-09 1.618135589271e-02
    6.055459380150e-06 8.767095510848e-03 8.266419172287e-06 5.153656892776e+03
    2.952000000000e+05 1.210719347000e-07 9.188986208674e-01-3.166496753693e-08
    9.636201172515e-01 2.216875000000e+02-1.319648528430e-01-8.139624762329e-09
    7.107438910502e-11 1.000000000000e+00 1.999000000000e+03 0.000000000000e+00
    2.400000000000e+00 0.000000000000e+00-1.350417733192e-08 2.000000000000e+01
    2.880060000000e+05 4.000000000000e+00
